{"type": "FeatureCollection", "features": [{"type": "Feature", "properties": {"norad_id": 24876, "name": "GPS BIIR-2  (PRN 13)", "group": "gps-ops", "lat": -54.855027638246156, "lon": -0.3484827977270453, "alt_km": 20422.234887915, "timestamp": "2025-12-18T13:51:49.942159+00:00", "meta": {"OBJECT_NAME": "GPS BIIR-2  (PRN 13)", "OBJECT_ID": "1997-035A", "EPOCH": "2025-12-17T17:14:35.709504", "MEAN_MOTION": 2.00563699, "ECCENTRICITY": 0.00967771, "INCLINATION": 55.8976, "RA_OF_ASC_NODE": 105.6742, "ARG_OF_PERICENTER": 56.9662, "MEAN_ANOMALY": 303.9295, "EPHEMERIS_TYPE": 0, "CLASSIFICATION_TYPE": "U", "NORAD_CAT_ID": 24876, "ELEMENT_SET_NO": 999, "REV_AT_EPOCH": 20831, "BSTAR": 0, "MEAN_MOTION_DOT": -2.3e-07, "MEAN_MOTION_DDOT": 0}, "tle": {"line1": "1 24876U 97035A   25351.71846886 -.00000023  00000+0  00000+0 0  9999", "line2": "2 24876  55.8976 105.6742 0096777  56.9662 303.9295  2.00563699208319"}}, "geometry": {"type": "Point", "coordinates": [-0.3484827977270453, -54.855027638246156]}}, {"type": "Feature", "properties": {"norad_id": 26360, "name": "GPS BIIR-4  (PRN 20)", "group": "gps-ops", "lat": -5.200683498550304, "lon": 22.97222244376644, "alt_km": 20219.868787939315, "timestamp": "2025-12-18T13:51:49.942187+00:00", "meta": {"OBJECT_NAME": "GPS BIIR-4  (PRN 20)", "OBJECT_ID": "2000-025A", "EPOCH": "2025-12-18T04:28:10.585632", "MEAN_MOTION": 2.00567362, "ECCENTRICITY": 0.0038886, "INCLINATION": 55.0484, "RA_OF_ASC_NODE": 26.6175, "ARG_OF_PERICENTER": 242.5017, "MEAN_ANOMALY": 188.1576, "EPHEMERIS_TYPE": 0, "CLASSIFICATION_TYPE": "U", "NORAD_CAT_ID": 26360, "ELEMENT_SET_NO": 999, "REV_AT_EPOCH": 18764, "BSTAR": 0, "MEAN_MOTION_DOT": -7.5e-07, "MEAN_MOTION_DDOT": 0}, "tle": {"line1": "1 26360U 00025A   25352.18623363 -.00000075  00000+0  00000+0 0  9994", "line2": "2 26360  55.0484  26.6175 0038886 242.5017 188.1576  2.00567362187649"}}, "geometry": {"type": "Point", "coordinates": [22.97222244376644, -5.200683498550304]}}, {"type": "Feature", "properties": {"norad_id": 26407, "name": "GPS BIIR-5  (PRN 22)", "group": "gps-ops", "lat": -9.417857650328488, "lon": 49.04579491703068, "alt_km": 20296.069670729998, "timestamp": "2025-12-18T13:51:49.942204+00:00", "meta": {"OBJECT_NAME": "GPS BIIR-5  (PRN 22)", "OBJECT_ID": "2000-040A", "EPOCH": "2025-12-18T01:31:29.889696", "MEAN_MOTION": 2.00568104, "ECCENTRICITY": 0.01257268, "INCLINATION": 54.8896, "RA_OF_ASC_NODE": 222.3573, "ARG_OF_PERICENTER": 301.8987, "MEAN_ANOMALY": 239.8065, "EPHEMERIS_TYPE": 0, "CLASSIFICATION_TYPE": "U", "NORAD_CAT_ID": 26407, "ELEMENT_SET_NO": 999, "REV_AT_EPOCH": 18631, "BSTAR": 0, "MEAN_MOTION_DOT": 7.4e-07, "MEAN_MOTION_DDOT": 0}, "tle": {"line1": "1 26407U 00040A   25352.06354039  .00000074  00000+0  00000+0 0  9999", "line2": "2 26407  54.8896 222.3573 0125726 301.8987 239.8065  2.00568104186312"}}, "geometry": {"type": "Point", "coordinates": [49.04579491703068, -9.417857650328488]}}, {"type": "Feature", "properties": {"norad_id": 27663, "name": "GPS BIIR-8  (PRN 16)", "group": "gps-ops", "lat": -26.393119590224074, "lon": -158.23889214982935, "alt_km": 20143.294852404877, "timestamp": "2025-12-18T13:51:49.942219+00:00", "meta": {"OBJECT_NAME": "GPS BIIR-8  (PRN 16)", "OBJECT_ID": "2003-005A", "EPOCH": "2025-12-18T07:42:25.953408", "MEAN_MOTION": 2.00570667, "ECCENTRICITY": 0.01476507, "INCLINATION": 54.922, "RA_OF_ASC_NODE": 222.1563, "ARG_OF_PERICENTER": 51.8768, "MEAN_ANOMALY": 91.7669, "EPHEMERIS_TYPE": 0, "CLASSIFICATION_TYPE": "U", "NORAD_CAT_ID": 27663, "ELEMENT_SET_NO": 999, "REV_AT_EPOCH": 16768, "BSTAR": 0, "MEAN_MOTION_DOT": 7.5e-07, "MEAN_MOTION_DDOT": 0}, "tle": {"line1": "1 27663U 03005A   25352.32113372  .00000075  00000+0  00000+0 0  9991", "line2": "2 27663  54.9220 222.1563 0147650  51.8768  91.7669  2.00570667167686"}}, "geometry": {"type": "Point", "coordinates": [-158.23889214982935, -26.393119590224074]}}, {"type": "Feature", "properties": {"norad_id": 28190, "name": "GPS BIIR-11 (PRN 19)", "group": "gps-ops", "lat": 41.12019059924003, "lon": 65.28767000707396, "alt_km": 19958.845572101025, "timestamp": "2025-12-18T13:51:49.942232+00:00", "meta": {"OBJECT_NAME": "GPS BIIR-11 (PRN 19)", "OBJECT_ID": "2004-009A", "EPOCH": "2025-12-18T01:19:43.105728", "MEAN_MOTION": 2.00560667, "ECCENTRICITY": 0.01084092, "INCLINATION": 54.9808, "RA_OF_ASC_NODE": 283.0048, "ARG_OF_PERICENTER": 167.7197, "MEAN_ANOMALY": 302.5438, "EPHEMERIS_TYPE": 0, "CLASSIFICATION_TYPE": "U", "NORAD_CAT_ID": 28190, "ELEMENT_SET_NO": 999, "REV_AT_EPOCH": 15931, "BSTAR": 0, "MEAN_MOTION_DOT": -5.1e-07, "MEAN_MOTION_DDOT": 0}, "tle": {"line1": "1 28190U 04009A   25352.05536002 -.00000051  00000+0  00000+0 0  9996", "line2": "2 28190  54.9808 283.0048 0108409 167.7197 302.5438  2.00560667159317"}}, "geometry": {"type": "Point", "coordinates": [65.28767000707396, 41.12019059924003]}}, {"type": "Feature", "properties": {"norad_id": 28474, "name": "GPS BIIR-13 (PRN 02)", "group": "gps-ops", "lat": -4.980794542399383, "lon": 155.6261875252167, "alt_km": 20426.92966824758, "timestamp": "2025-12-18T13:51:49.942244+00:00", "meta": {"OBJECT_NAME": "GPS BIIR-13 (PRN 02)", "OBJECT_ID": "2004-045A", "EPOCH": "2025-12-18T01:39:38.765952", "MEAN_MOTION": 2.00569875, "ECCENTRICITY": 0.01708529, "INCLINATION": 55.238, "RA_OF_ASC_NODE": 332.1914, "ARG_OF_PERICENTER": 309.4802, "MEAN_ANOMALY": 231.0384, "EPHEMERIS_TYPE": 0, "CLASSIFICATION_TYPE": "U", "NORAD_CAT_ID": 28474, "ELEMENT_SET_NO": 999, "REV_AT_EPOCH": 15479, "BSTAR": 0, "MEAN_MOTION_DOT": -8.7e-07, "MEAN_MOTION_DDOT": 0}, "tle": {"line1": "1 28474U 04045A   25352.06919868 -.00000087  00000+0  00000+0 0  9996", "line2": "2 28474  55.2380 332.1914 0170852 309.4802 231.0384  2.00569875154791"}}, "geometry": {"type": "Point", "coordinates": [155.6261875252167, -4.980794542399383]}}, {"type": "Feature", "properties": {"norad_id": 28874, "name": "GPS BIIRM-1 (PRN 17)", "group": "gps-ops", "lat": 27.305027491606957, "lon": 79.29842913100264, "alt_km": 20472.039477491562, "timestamp": "2025-12-18T13:51:49.942256+00:00", "meta": {"OBJECT_NAME": "GPS BIIRM-1 (PRN 17)", "OBJECT_ID": "2005-038A", "EPOCH": "2025-12-18T01:19:16.809024", "MEAN_MOTION": 2.00578146, "ECCENTRICITY": 0.01314775, "INCLINATION": 55.0272, "RA_OF_ASC_NODE": 280.4869, "ARG_OF_PERICENTER": 293.6658, "MEAN_ANOMALY": 195.7064, "EPHEMERIS_TYPE": 0, "CLASSIFICATION_TYPE": "U", "NORAD_CAT_ID": 28874, "ELEMENT_SET_NO": 999, "REV_AT_EPOCH": 14820, "BSTAR": 0, "MEAN_MOTION_DOT": -4.7e-07, "MEAN_MOTION_DDOT": 0}, "tle": {"line1": "1 28874U 05038A   25352.05505566 -.00000047  00000+0  00000+0 0  9994", "line2": "2 28874  55.0272 280.4869 0131477 293.6658 195.7064  2.00578146148201"}}, "geometry": {"type": "Point", "coordinates": [79.29842913100264, 27.305027491606957]}}, {"type": "Feature", "properties": {"norad_id": 29486, "name": "GPS BIIRM-2 (PRN 31)", "group": "gps-ops", "lat": 38.22675529261447, "lon": -167.55073843587604, "alt_km": 19893.721067175662, "timestamp": "2025-12-18T13:51:49.942268+00:00", "meta": {"OBJECT_NAME": "GPS BIIRM-2 (PRN 31)", "OBJECT_ID": "2006-042A", "EPOCH": "2025-12-16T18:24:54.505728", "MEAN_MOTION": 2.00554045, "ECCENTRICITY": 0.01073341, "INCLINATION": 54.6946, "RA_OF_ASC_NODE": 158.5809, "ARG_OF_PERICENTER": 52.0567, "MEAN_ANOMALY": 130.2096, "EPHEMERIS_TYPE": 0, "CLASSIFICATION_TYPE": "U", "NORAD_CAT_ID": 29486, "ELEMENT_SET_NO": 999, "REV_AT_EPOCH": 14073, "BSTAR": 0, "MEAN_MOTION_DOT": 8.7e-07, "MEAN_MOTION_DDOT": 0}, "tle": {"line1": "1 29486U 06042A   25350.76729752  .00000087  00000+0  00000+0 0  9994", "line2": "2 29486  54.6946 158.5809 0107334  52.0567 130.2096  2.00554045140735"}}, "geometry": {"type": "Point", "coordinates": [-167.55073843587604, 38.22675529261447]}}, {"type": "Feature", "properties": {"norad_id": 29601, "name": "GPS BIIRM-3 (PRN 12)", "group": "gps-ops", "lat": 51.24951317420211, "lon": -19.690575293821617, "alt_km": 19956.761712971776, "timestamp": "2025-12-18T13:51:49.942280+00:00", "meta": {"OBJECT_NAME": "GPS BIIRM-3 (PRN 12)", "OBJECT_ID": "2006-052A", "EPOCH": "2025-12-17T22:21:49.009536", "MEAN_MOTION": 2.00574024, "ECCENTRICITY": 0.00876985, "INCLINATION": 54.9696, "RA_OF_ASC_NODE": 221.1922, "ARG_OF_PERICENTER": 87.4131, "MEAN_ANOMALY": 273.6858, "EPHEMERIS_TYPE": 0, "CLASSIFICATION_TYPE": "U", "NORAD_CAT_ID": 29601, "ELEMENT_SET_NO": 999, "REV_AT_EPOCH": 13977, "BSTAR": 0, "MEAN_MOTION_DOT": 7.5e-07, "MEAN_MOTION_DDOT": 0}, "tle": {"line1": "1 29601U 06052A   25351.93181724  .00000075  00000+0  00000+0 0  9992", "line2": "2 29601  54.9696 221.1922 0087698  87.4131 273.6858  2.00574024139770"}}, "geometry": {"type": "Point", "coordinates": [-19.690575293821617, 51.24951317420211]}}, {"type": "Feature", "properties": {"norad_id": 32260, "name": "GPS BIIRM-4 (PRN 15)", "group": "gps-ops", "lat": -48.51483571428142, "lon": -37.17497140926975, "alt_km": 20602.03444253598, "timestamp": "2025-12-18T13:51:49.942292+00:00", "meta": {"OBJECT_NAME": "GPS BIIRM-4 (PRN 15)", "OBJECT_ID": "2007-047A", "EPOCH": "2025-12-16T05:50:40.680960", "MEAN_MOTION": 2.00564415, "ECCENTRICITY": 0.01640743, "INCLINATION": 53.9576, "RA_OF_ASC_NODE": 87.6137, "ARG_OF_PERICENTER": 85.2864, "MEAN_ANOMALY": 276.5744, "EPHEMERIS_TYPE": 0, "CLASSIFICATION_TYPE": "U", "NORAD_CAT_ID": 32260, "ELEMENT_SET_NO": 999, "REV_AT_EPOCH": 13314, "BSTAR": 0, "MEAN_MOTION_DOT": -5.5e-07, "MEAN_MOTION_DDOT": 0}, "tle": {"line1": "1 32260U 07047A   25350.24352640 -.00000055  00000+0  00000+0 0  9991", "line2": "2 32260  53.9576  87.6137 0164074  85.2864 276.5744  2.00564415133141"}}, "geometry": {"type": "Point", "coordinates": [-37.17497140926975, -48.51483571428142]}}]}